ION SCV-004             
1 50993U 22002K   26068.68892644  .00006538  00000+0  23198-3 0  9998
2 50993  97.2961 128.2294 0007216   1.6783 358.4480 15.29369331230088
STARLINK-35983          
1 66902U 25283AA  26068.29549538  .00031666  00000+0  10750-2 0  9996
2 66902  53.1604  26.0050 0001474  56.6850 303.4292 15.30251187 15780
